[{"OBJECT_NAME":"ONEWEB-0234","OBJECT_ID":"2021-045S","EPOCH":"2025-09-21T05:20:42.070560","MEAN_MOTION":13.15565193,"ECCENTRICITY":0.00024438,"INCLINATION":87.9019,"RA_OF_ASC_NODE":312.8503,"ARG_OF_PERICENTER":108.7788,"MEAN_ANOMALY":251.3607,"EPHEMERIS_TYPE":0,"CLASSIFICATION_TYPE":"U","NORAD_CAT_ID":48783,"ELEMENT_SET_NO":999,"REV_AT_EPOCH":20911,"BSTAR":-0.010088161,"MEAN_MOTION_DOT":-3.784e-5,"MEAN_MOTION_DDOT":0},{"OBJECT_NAME":"ONEWEB-0238","OBJECT_ID":"2021-045T","EPOCH":"2025-09-21T03:31:35.720544","MEAN_MOTION":13.15549868,"ECCENTRICITY":0.00021534,"INCLINATION":87.9014,"RA_OF_ASC_NODE":312.8609,"ARG_OF_PERICENTER":102.1786,"MEAN_ANOMALY":257.9586,"EPHEMERIS_TYPE":0,"CLASSIFICATION_TYPE":"U","NORAD_CAT_ID":48784,"ELEMENT_SET_NO":999,"REV_AT_EPOCH":20900,"BSTAR":0.00020563805,"MEAN_MOTION_DOT":9.0e-7,"MEAN_MOTION_DDOT":0},{"OBJECT_NAME":"ONEWEB-0240","OBJECT_ID":"2021-045U","EPOCH":"2025-09-21T04:02:12.456672","MEAN_MOTION":13.15548533,"ECCENTRICITY":0.00016873,"INCLINATION":87.9024,"RA_OF_ASC_NODE":312.8421,"ARG_OF_PERICENTER":107.4267,"MEAN_ANOMALY":252.7048,"EPHEMERIS_TYPE":0,"CLASSIFICATION_TYPE":"U","NORAD_CAT_ID":48785,"ELEMENT_SET_NO":999,"REV_AT_EPOCH":20903,"BSTAR":-0.0002067029,"MEAN_MOTION_DOT":-6.5e-7,"MEAN_MOTION_DDOT":0},{"OBJECT_NAME":"ONEWEB-0246","OBJECT_ID":"2021-045V","EPOCH":"2025-09-21T03:54:12.487392","MEAN_MOTION":13.15549603,"ECCENTRICITY":0.00017216,"INCLINATION":87.9025,"RA_OF_ASC_NODE":312.856,"ARG_OF_PERICENTER":93.901,"MEAN_ANOMALY":266.2317,"EPHEMERIS_TYPE":0,"CLASSIFICATION_TYPE":"U","NORAD_CAT_ID":48786,"ELEMENT_SET_NO":999,"REV_AT_EPOCH":20890,"BSTAR":-0.00019693733,"MEAN_MOTION_DOT":-6.1e-7,"MEAN_MOTION_DDOT":0},{"OBJECT_NAME":"ONEWEB-0210","OBJECT_ID":"2021-045W","EPOCH":"2025-09-21T05:07:13.814976","MEAN_MOTION":13.15549964,"ECCENTRICITY":0.00012088,"INCLINATION":87.9023,"RA_OF_ASC_NODE":312.8453,"ARG_OF_PERICENTER":85.3867,"MEAN_ANOMALY":274.7402,"EPHEMERIS_TYPE":0,"CLASSIFICATION_TYPE":"U","NORAD_CAT_ID":48787,"ELEMENT_SET_NO":999,"REV_AT_EPOCH":20895,"BSTAR":0.00052192582,"MEAN_MOTION_DOT":2.09e-6,"MEAN_MOTION_DDOT":0},{"OBJECT_NAME":"ONEWEB-0214","OBJECT_ID":"2021-045X","EPOCH":"2025-09-21T03:30:14.896800","MEAN_MOTION":13.15548544,"ECCENTRICITY":0.00015,"INCLINATION":87.9023,"RA_OF_ASC_NODE":312.846,"ARG_OF_PERICENTER":83.6965,"MEAN_ANOMALY":276.4336,"EPHEMERIS_TYPE":0,"CLASSIFICATION_TYPE":"U","NORAD_CAT_ID":48788,"ELEMENT_SET_NO":999,"REV_AT_EPOCH":20891,"BSTAR":5.1534878e-5,"MEAN_MOTION_DOT":3.2e-7,"MEAN_MOTION_DDOT":0},{"OBJECT_NAME":"ONEWEB-0221","OBJECT_ID":"2021-045Y","EPOCH":"2025-09-21T03:40:30.429408","MEAN_MOTION":13.15547776,"ECCENTRICITY":0.00016475,"INCLINATION":87.9012,"RA_OF_ASC_NODE":312.8698,"ARG_OF_PERICENTER":98.5816,"MEAN_ANOMALY":261.5501,"EPHEMERIS_TYPE":0,"CLASSIFICATION_TYPE":"U","NORAD_CAT_ID":48789,"ELEMENT_SET_NO":999,"REV_AT_EPOCH":20900,"BSTAR":-0.00033634069,"MEAN_MOTION_DOT":-1.14e-6,"MEAN_MOTION_DDOT":0},{"OBJECT_NAME":"ONEWEB-0213","OBJECT_ID":"2021-045Z","EPOCH":"2025-09-21T05:14:04.147584","MEAN_MOTION":13.15549855,"ECCENTRICITY":0.00015492,"INCLINATION":87.9015,"RA_OF_ASC_NODE":312.8655,"ARG_OF_PERICENTER":96.3002,"MEAN_ANOMALY":263.8305,"EPHEMERIS_TYPE":0,"CLASSIFICATION_TYPE":"U","NORAD_CAT_ID":48790,"ELEMENT_SET_NO":999,"REV_AT_EPOCH":20907,"BSTAR":0.0002758701,"MEAN_MOTION_DOT":1.17e-6,"MEAN_MOTION_DDOT":0},{"OBJECT_NAME":"ONEWEB-0212","OBJECT_ID":"2021-045AA","EPOCH":"2025-09-21T02:51:28.344384","MEAN_MOTION":13.15549303,"ECCENTRICITY":0.00018932,"INCLINATION":87.9019,"RA_OF_ASC_NODE":312.8684,"ARG_OF_PERICENTER":98.2049,"MEAN_ANOMALY":261.9296,"EPHEMERIS_TYPE":0,"CLASSIFICATION_TYPE":"U","NORAD_CAT_ID":48791,"ELEMENT_SET_NO":999,"REV_AT_EPOCH":20905,"BSTAR":0.0005699171,"MEAN_MOTION_DOT":2.27e-6,"MEAN_MOTION_DDOT":0},{"OBJECT_NAME":"ONEWEB-0227","OBJECT_ID":"2021-045AB","EPOCH":"2025-09-21T04:39:50.828256","MEAN_MOTION":13.15547605,"ECCENTRICITY":0.00017159,"INCLINATION":87.9013,"RA_OF_ASC_NODE":312.8715,"ARG_OF_PERICENTER":99.259,"MEAN_ANOMALY":260.8734,"EPHEMERIS_TYPE":0,"CLASSIFICATION_TYPE":"U","NORAD_CAT_ID":48792,"ELEMENT_SET_NO":999,"REV_AT_EPOCH":20901,"BSTAR":-6.4440316e-5,"MEAN_MOTION_DOT":-1.1e-7,"MEAN_MOTION_DDOT":0},{"OBJECT_NAME":"ONEWEB-0226","OBJECT_ID":"2021-045AC","EPOCH":"2025-09-21T04:30:42.984864","MEAN_MOTION":13.15548591,"ECCENTRICITY":0.00014735,"INCLINATION":87.9015,"RA_OF_ASC_NODE":312.88,"ARG_OF_PERICENTER":93.3277,"MEAN_ANOMALY":266.8022,"EPHEMERIS_TYPE":0,"CLASSIFICATION_TYPE":"U","NORAD_CAT_ID":48793,"ELEMENT_SET_NO":999,"REV_AT_EPOCH":20898,"BSTAR":0.00027971153,"MEAN_MOTION_DOT":1.18e-6,"MEAN_MOTION_DDOT":0},{"OBJECT_NAME":"ONEWEB-0224","OBJECT_ID":"2021-045AD","EPOCH":"2025-09-21T03:38:14.867808","MEAN_MOTION":13.15547025,"ECCENTRICITY":0.00020211,"INCLINATION":87.9014,"RA_OF_ASC_NODE":312.9223,"ARG_OF_PERICENTER":125.3148,"MEAN_ANOMALY":234.8171,"EPHEMERIS_TYPE":0,"CLASSIFICATION_TYPE":"U","NORAD_CAT_ID":48794,"ELEMENT_SET_NO":999,"REV_AT_EPOCH":20890,"BSTAR":6.669538e-6,"MEAN_MOTION_DOT":1.5e-7,"MEAN_MOTION_DDOT":0},{"OBJECT_NAME":"ONEWEB-0233","OBJECT_ID":"2021-045AE","EPOCH":"2025-09-21T03:44:53.093184","MEAN_MOTION":13.15548971,"ECCENTRICITY":0.00016232,"INCLINATION":87.9017,"RA_OF_ASC_NODE":312.9324,"ARG_OF_PERICENTER":104.7478,"MEAN_ANOMALY":255.3833,"EPHEMERIS_TYPE":0,"CLASSIFICATION_TYPE":"U","NORAD_CAT_ID":48795,"ELEMENT_SET_NO":999,"REV_AT_EPOCH":20892,"BSTAR":-0.000246369,"MEAN_MOTION_DOT":-8.0e-7,"MEAN_MOTION_DDOT":0},{"OBJECT_NAME":"ONEWEB-0190","OBJECT_ID":"2021-045AF","EPOCH":"2025-09-21T03:26:48.577056","MEAN_MOTION":13.15547289,"ECCENTRICITY":0.00010357,"INCLINATION":87.9014,"RA_OF_ASC_NODE":312.8978,"ARG_OF_PERICENTER":105.8284,"MEAN_ANOMALY":254.2961,"EPHEMERIS_TYPE":0,"CLASSIFICATION_TYPE":"U","NORAD_CAT_ID":48796,"ELEMENT_SET_NO":999,"REV_AT_EPOCH":20899,"BSTAR":-0.00050429189,"MEAN_MOTION_DOT":-1.77e-6,"MEAN_MOTION_DDOT":0},{"OBJECT_NAME":"ONEWEB-0236","OBJECT_ID":"2021-045AG","EPOCH":"2025-09-21T03:51:55.787904","MEAN_MOTION":13.15549748,"ECCENTRICITY":0.00019879,"INCLINATION":87.9014,"RA_OF_ASC_NODE":312.905,"ARG_OF_PERICENTER":97.5895,"MEAN_ANOMALY":262.5461,"EPHEMERIS_TYPE":0,"CLASSIFICATION_TYPE":"U","NORAD_CAT_ID":48797,"ELEMENT_SET_NO":999,"REV_AT_EPOCH":20888,"BSTAR":-0.0001444011,"MEAN_MOTION_DOT":-4.2e-7,"MEAN_MOTION_DDOT":0},{"OBJECT_NAME":"ONEWEB-0248","OBJECT_ID":"2021-045AH","EPOCH":"2025-09-21T04:10:10.149312","MEAN_MOTION":13.15550337,"ECCENTRICITY":0.0001588,"INCLINATION":87.9025,"RA_OF_ASC_NODE":312.8583,"ARG_OF_PERICENTER":117.5246,"MEAN_ANOMALY":242.6046,"EPHEMERIS_TYPE":0,"CLASSIFICATION_TYPE":"U","NORAD_CAT_ID":48798,"ELEMENT_SET_NO":999,"REV_AT_EPOCH":20904,"BSTAR":-0.00018751626,"MEAN_MOTION_DOT":-5.8e-7,"MEAN_MOTION_DDOT":0}]
