ONEWEB-0234             
1 48783U 21045S   25264.22270915 -.00003784  00000+0 -10088-1 0  9990
2 48783  87.9019 312.8503 0002443 108.7788 251.3607 13.15565193209116
ONEWEB-0238             
1 48784U 21045T   25264.14694121  .00000090  00000+0  20564-3 0  9998
2 48784  87.9014 312.8609 0002153 102.1786 257.9586 13.15549868209000
ONEWEB-0240             
1 48785U 21045U   25264.16819973 -.00000065  00000+0 -20670-3 0  9997
2 48785  87.9024 312.8421 0001687 107.4267 252.7048 13.15548533209034
ONEWEB-0246             
1 48786U 21045V   25264.16264453 -.00000061  00000+0 -19694-3 0  9995
2 48786  87.9025 312.8560 0001721  93.9010 266.2317 13.15549603208907
ONEWEB-0210             
1 48787U 21045W   25264.21335434  .00000209  00000+0  52193-3 0  9993
2 48787  87.9023 312.8453 0001208  85.3867 274.7402 13.15549964208956
ONEWEB-0214             
1 48788U 21045X   25264.14600575  .00000032  00000+0  51535-4 0  9991
2 48788  87.9023 312.8460 0001500  83.6965 276.4336 13.15548544208914
ONEWEB-0221             
1 48789U 21045Y   25264.15312997 -.00000114  00000+0 -33634-3 0  9993
2 48789  87.9012 312.8698 0001647  98.5816 261.5501 13.15547776209004
ONEWEB-0213             
1 48790U 21045Z   25264.21810356  .00000117  00000+0  27587-3 0  9995
2 48790  87.9015 312.8655 0001549  96.3002 263.8305 13.15549855209070
ONEWEB-0212             
1 48791U 21045AA  25264.11907806  .00000227  00000+0  56992-3 0  9996
2 48791  87.9019 312.8684 0001893  98.2049 261.9296 13.15549303209055
ONEWEB-0227             
1 48792U 21045AB  25264.19433829 -.00000011  00000+0 -64440-4 0  9995
2 48792  87.9013 312.8715 0001715  99.2590 260.8734 13.15547605209014
ONEWEB-0226             
1 48793U 21045AC  25264.18799751  .00000118  00000+0  27971-3 0  9997
2 48793  87.9015 312.8800 0001473  93.3277 266.8022 13.15548591208986
ONEWEB-0224             
1 48794U 21045AD  25264.15156097  .00000015  00000+0  66695-5 0  9999
2 48794  87.9014 312.9223 0002021 125.3148 234.8171 13.15547025208902
ONEWEB-0233             
1 48795U 21045AE  25264.15617006 -.00000080  00000+0 -24637-3 0  9994
2 48795  87.9017 312.9324 0001623 104.7478 255.3833 13.15548971208928
ONEWEB-0190             
1 48796U 21045AF  25264.14361779 -.00000177  00000+0 -50429-3 0  9992
2 48796  87.9014 312.8978 0001035 105.8284 254.2961 13.15547289208992
ONEWEB-0236             
1 48797U 21045AG  25264.16106236 -.00000042  00000+0 -14440-3 0  9994
2 48797  87.9014 312.9050 0001987  97.5895 262.5461 13.15549748208883
ONEWEB-0248             
1 48798U 21045AH  25264.17372858 -.00000058  00000+0 -18752-3 0  9998
2 48798  87.9025 312.8583 0001588 117.5246 242.6046 13.15550337209049
